{
    "links": {
        "self": "http://www.neowsapp.com/rest/v1/neo/3559910?api_key=iIulBulltgU6a56xZRHN4H3l9WmuAYTsLGpBGhQ2"
    },
    "id": "3559910",
    "neo_reference_id": "3559910",
    "name": "(2011 ES74)",
    "designation": "2011 ES74",
    "nasa_jpl_url": "http://ssd.jpl.nasa.gov/sbdb.cgi?sstr=3559910",
    "absolute_magnitude_h": 24.7,
    "estimated_diameter": {
        "kilometers": {
            "estimated_diameter_min": 0.0305179233,
            "estimated_diameter_max": 0.0682401509
        },
        "meters": {
            "estimated_diameter_min": 30.5179232594,
            "estimated_diameter_max": 68.2401509401
        },
        "miles": {
            "estimated_diameter_min": 0.0189629525,
            "estimated_diameter_max": 0.0424024508
        },
        "feet": {
            "estimated_diameter_min": 100.1244233463,
            "estimated_diameter_max": 223.8850168104
        }
    },
    "is_potentially_hazardous_asteroid": false,
    "close_approach_data": [
        {
            "close_approach_date": "2011-03-27",
            "close_approach_date_full": "2011-Mar-27 02:41",
            "epoch_date_close_approach": 1301193660000,
            "relative_velocity": {
                "kilometers_per_second": "11.2078813922",
                "kilometers_per_hour": "40348.3730118253",
                "miles_per_hour": "25070.9098861533"
            },
            "miss_distance": {
                "astronomical": "0.0308932074",
                "lunar": "12.0174576786",
                "kilometers": "4621558.024508238",
                "miles": "2871702.9937921644"
            },
            "orbiting_body": "Earth"
        }
    ],
    "orbital_data": {
        "orbit_id": "7",
        "orbit_determination_date": "2017-04-06 08:54:05",
        "first_observation_date": "2011-03-14",
        "last_observation_date": "2011-03-26",
        "data_arc_in_days": 12,
        "observations_used": 24,
        "orbit_uncertainty": "9",
        "minimum_orbit_intersection": ".0259367",
        "jupiter_tisserand_invariant": "3.425",
        "epoch_osculation": "2455637.5",
        "eccentricity": ".5742236295458095",
        "semi_major_axis": "2.203551222943438",
        "inclination": "3.26133753336801",
        "ascending_node_longitude": "162.1506464629243",
        "orbital_period": "1194.766817882062",
        "perihelion_distance": ".9382200418147497",
        "perihelion_argument": "61.27316587722783",
        "aphelion_distance": "3.468882404072127",
        "perihelion_time": "2455675.937565938881",
        "mean_anomaly": "348.418222258192",
        "mean_motion": ".3013140259771899",
        "equinox": "J2000",
        "orbit_class": {
            "orbit_class_type": "APO",
            "orbit_class_description": "Near-Earth asteroid orbits which cross the Earth’s orbit similar to that of 1862 Apollo",
            "orbit_class_range": "a (semi-major axis) > 1.0 AU; q (perihelion) < 1.017 AU"
        }
    },
    "is_sentry_object": false
}